ONEWEB-0395             
1 50475U 21132G   25238.58520381 -.00000483  00000+0 -14000-2 0  9995
2 50475  87.8772  79.7870 0001710  96.4677 263.6646 13.11416090177103
ONEWEB-0396             
1 50476U 21132H   25238.46278617  .00000083  00000+0  17799-3 0  9998
2 50476  87.9157  33.9791 0001895  95.5915 264.5434 13.18686538182794
ONEWEB-0397             
1 50477U 21132J   25238.47761570 -.00000051  00000+0 -16153-3 0  9995
2 50477  87.9155  33.9771 0001951  91.1913 268.9442 13.18686336182775
ONEWEB-0398             
1 50478U 21132K   25238.55300616  .00000505  00000+0  13886-2 0  9996
2 50478  87.8781  79.7574 0001356  94.9347 265.1935 13.11415744176999
ONEWEB-0399             
1 50479U 21132L   25238.53941589 -.00002338  00000+0 -66348-2 0  9994
2 50479  87.8773  79.7834 0002173  89.3745 270.7632 13.11422629176983
ONEWEB-0400             
1 50480U 21132M   25238.15266330 -.00000232  00000+0 -62038-3 0  9992
2 50480  87.9156  34.0320 0001630  98.6708 261.4609 13.18685353182726
ONEWEB-0401             
1 50481U 21132N   25238.50072909  .00000069  00000+0  14121-3 0  9995
2 50481  87.9158  33.9588 0001878  88.3541 271.7806 13.18685761182779
ONEWEB-0402             
1 50482U 21132P   25238.46442323  .00000083  00000+0  17748-3 0  9996
2 50482  87.9157  33.9596 0002052  77.1145 283.0216 13.18683680182790
